start=new Date('2023-05-21T00:00:00.000Z').valueOf();
sats=[{"LAUNCH_DATE":"2023-03-03","NORAD_CAT_ID":"55759","APOAPSIS":"417.396","COUNTRY_CODE":"US","REF_FRAME":"TEME","SEMIMAJOR_AXIS":"6793.218","REV_AT_EPOCH":"1289","MEAN_ANOMALY":"94.6004","TIME_SYSTEM":"UTC","RA_OF_ASC_NODE":"297.0793","MEAN_ELEMENT_THEORY":"SGP4","CLASSIFICATION_TYPE":"U","BSTAR":"0.00001812800000","TLE_LINE1":"1 55759U 23028U   23140.83736771  .00000877  00000-0  18128-4 0  9994","MEAN_MOTION_DDOT":"0.0000000000000","EPHEMERIS_TYPE":"0","OBJECT_ID":"2023-028U","PERIOD":"92.869","EPOCH":"2023-05-20T20:05:48.570144","TLE_LINE2":"2 55759  69.9985 297.0793 0003405 265.4793  94.6004 15.50563100 12893","FILE":"3913175","SITE":"AFWTR","GP_ID":"232212750","MEAN_MOTION":"15.50563100","RCS_SIZE":"LARGE","CENTER_NAME":"EARTH","DECAY_DATE":null,"ECCENTRICITY":"0.00034050","INCLINATION":"69.9985","ELEMENT_SET_NO":"999","OBJECT_NAME":"STARLINK-5081","PERIAPSIS":"412.770","OBJECT_TYPE":"PAYLOAD","MEAN_MOTION_DOT":"0.00000877","ARG_OF_PERICENTER":"265.4793"},{"MEAN_MOTION_DOT":"0.00000226","ARG_OF_PERICENTER":"272.6147","OBJECT_TYPE":"PAYLOAD","PERIAPSIS":"570.204","ELEMENT_SET_NO":"999","OBJECT_NAME":"STARLINK-5532","MEAN_MOTION":"14.98334696","GP_ID":"232212999","FILE":"3913175","SITE":"AFWTR","ECCENTRICITY":"0.00026470","INCLINATION":"69.9993","CENTER_NAME":"EARTH","RCS_SIZE":"LARGE","DECAY_DATE":null,"PERIOD":"96.107","OBJECT_ID":"2023-028V","EPHEMERIS_TYPE":"0","TLE_LINE2":"2 55760  69.9993 305.7302 0002647 272.6147  87.4709 14.98334696 12683","EPOCH":"2023-05-20T20:25:55.033824","CLASSIFICATION_TYPE":"U","MEAN_ELEMENT_THEORY":"SGP4","BSTAR":"0.00002670300000","TLE_LINE1":"1 55760U 23028V   23140.85133141  .00000226  00000-0  26703-4 0  9996","MEAN_MOTION_DDOT":"0.0000000000000","REV_AT_EPOCH":"1268","SEMIMAJOR_AXIS":"6950.178","MEAN_ANOMALY":"87.4709","REF_FRAME":"TEME","TIME_SYSTEM":"UTC","RA_OF_ASC_NODE":"305.7302","APOAPSIS":"573.883","NORAD_CAT_ID":"55760","COUNTRY_CODE":"US","LAUNCH_DATE":"2023-03-03"},{"EPOCH":"2023-05-20T19:20:34.900800","TLE_LINE2":"2 55761  70.0017 295.7680 0003883 291.8722  68.2060 15.69944326 12926","EPHEMERIS_TYPE":"0","OBJECT_ID":"2023-028W","PERIOD":"91.723","BSTAR":"0.00003300700000","TLE_LINE1":"1 55761U 23028W   23140.80595950  .00003761  00000-0  33007-4 0  9994","MEAN_MOTION_DDOT":"0.0000000000000","MEAN_ELEMENT_THEORY":"SGP4","CLASSIFICATION_TYPE":"U","RA_OF_ASC_NODE":"295.7680","TIME_SYSTEM":"UTC","REF_FRAME":"TEME","MEAN_ANOMALY":"68.2060","REV_AT_EPOCH":"1292","SEMIMAJOR_AXIS":"6737.193","LAUNCH_DATE":"2023-03-03","COUNTRY_CODE":"US","NORAD_CAT_ID":"55761","APOAPSIS":"361.674","ARG_OF_PERICENTER":"291.8722","MEAN_MOTION_DOT":"0.00003761","OBJECT_TYPE":"PAYLOAD","PERIAPSIS":"356.442","OBJECT_NAME":"STARLINK-5611","ELEMENT_SET_NO":"999","DECAY_DATE":null,"CENTER_NAME":"EARTH","RCS_SIZE":"LARGE","INCLINATION":"70.0017","ECCENTRICITY":"0.00038830","SITE":"AFWTR","FILE":"3913175","MEAN_MOTION":"15.69944326","GP_ID":"232211254"},{"OBJECT_NAME":"STARLINK-5603","ELEMENT_SET_NO":"999","ECCENTRICITY":"0.00037270","INCLINATION":"70.0001","RCS_SIZE":"LARGE","CENTER_NAME":"EARTH","DECAY_DATE":null,"GP_ID":"232211504","MEAN_MOTION":"15.69941422","FILE":"3913175","SITE":"AFWTR","ARG_OF_PERICENTER":"287.6069","MEAN_MOTION_DOT":"0.00002385","OBJECT_TYPE":"PAYLOAD","PERIAPSIS":"356.556","TIME_SYSTEM":"UTC","RA_OF_ASC_NODE":"295.7670","REV_AT_EPOCH":"1292","SEMIMAJOR_AXIS":"6737.202","MEAN_ANOMALY":"72.4720","REF_FRAME":"TEME","NORAD_CAT_ID":"55762","APOAPSIS":"361.578","COUNTRY_CODE":"US","LAUNCH_DATE":"2023-03-03","TLE_LINE2":"2 55762  70.0001 295.7670 0003727 287.6069  72.4720 15.69941422 12927","EPOCH":"2023-05-20T19:19:58.274112","OBJECT_ID":"2023-028X","PERIOD":"91.723","EPHEMERIS_TYPE":"0","TLE_LINE1":"1 55762U 23028X   23140.80553558  .00002385  00000-0  21583-4 0  9990","MEAN_MOTION_DDOT":"0.0000000000000","BSTAR":"0.00002158300000","CLASSIFICATION_TYPE":"U","MEAN_ELEMENT_THEORY":"SGP4"},{"NORAD_CAT_ID":"55763","APOAPSIS":"574.219","COUNTRY_CODE":"US","LAUNCH_DATE":"2023-03-03","REV_AT_EPOCH":"1268","SEMIMAJOR_AXIS":"6950.174","MEAN_ANOMALY":"91.7024","REF_FRAME":"TEME","TIME_SYSTEM":"UTC","RA_OF_ASC_NODE":"305.7464","CLASSIFICATION_TYPE":"U","MEAN_ELEMENT_THEORY":"SGP4","BSTAR":"0.00007325000000","TLE_LINE1":"1 55763U 23028Y   23140.85533812  .00000781  00000-0  73250-4 0  9993","MEAN_MOTION_DDOT":"0.0000000000000","OBJECT_ID":"2023-028Y","PERIOD":"96.107","EPHEMERIS_TYPE":"0","TLE_LINE2":"2 55763  69.9995 305.7464 0003136 268.3776  91.7024 14.98336128 12681","EPOCH":"2023-05-20T20:31:41.213568","GP_ID":"232212251","MEAN_MOTION":"14.98336128","FILE":"3913175","SITE":"AFWTR","ECCENTRICITY":"0.00031360","INCLINATION":"69.9995","RCS_SIZE":"LARGE","CENTER_NAME":"EARTH","DECAY_DATE":null,"ELEMENT_SET_NO":"999","OBJECT_NAME":"STARLINK-5593","OBJECT_TYPE":"PAYLOAD","PERIAPSIS":"569.859","MEAN_MOTION_DOT":"0.00000781","ARG_OF_PERICENTER":"268.3776"},{"ARG_OF_PERICENTER":"290.2876","MEAN_MOTION_DOT":"0.00004411","OBJECT_TYPE":"PAYLOAD","PERIAPSIS":"356.578","OBJECT_NAME":"STARLINK-5499","ELEMENT_SET_NO":"999","CENTER_NAME":"EARTH","RCS_SIZE":"LARGE","DECAY_DATE":null,"INCLINATION":"70.0013","ECCENTRICITY":"0.00036900","FILE":"3913175","SITE":"AFWTR","MEAN_MOTION":"15.69942189","GP_ID":"232212500","EPOCH":"2023-05-20T19:20:07.894752","TLE_LINE2":"2 55764  70.0013 295.7676 0003690 290.2876  69.7923 15.69942189 12928","EPHEMERIS_TYPE":"0","PERIOD":"91.723","OBJECT_ID":"2023-028Z","MEAN_MOTION_DDOT":"0.0000000000000","TLE_LINE1":"1 55764U 23028Z   23140.80564693  .00004411  00000-0  38401-4 0  9993","BSTAR":"0.00003840100000","MEAN_ELEMENT_THEORY":"SGP4","CLASSIFICATION_TYPE":"U","TIME_SYSTEM":"UTC","RA_OF_ASC_NODE":"295.7676","REF_FRAME":"TEME","REV_AT_EPOCH":"1292","SEMIMAJOR_AXIS":"6737.199","MEAN_ANOMALY":"69.7923","LAUNCH_DATE":"2023-03-03","APOAPSIS":"361.550","NORAD_CAT_ID":"55764","COUNTRY_CODE":"US"},{"OBJECT_ID":"2023-028AA","PERIOD":"91.723","EPHEMERIS_TYPE":"0","TLE_LINE2":"2 55765  70.0009 295.7677 0003558 285.7879  74.2924 15.69941788 12926","EPOCH":"2023-05-20T19:20:16.901088","CLASSIFICATION_TYPE":"U","MEAN_ELEMENT_THEORY":"SGP4","BSTAR":"0.00004584800000","TLE_LINE1":"1 55765U 23028AA  23140.80575117  .00005308  00000-0  45848-4 0  9996","MEAN_MOTION_DDOT":"0.0000000000000","MEAN_ANOMALY":"74.2924","REV_AT_EPOCH":"1292","SEMIMAJOR_AXIS":"6737.201","REF_FRAME":"TEME","RA_OF_ASC_NODE":"295.7677","TIME_SYSTEM":"UTC","COUNTRY_CODE":"US","APOAPSIS":"361.463","NORAD_CAT_ID":"55765","LAUNCH_DATE":"2023-03-03","MEAN_MOTION_DOT":"0.00005308","ARG_OF_PERICENTER":"285.7879","PERIAPSIS":"356.668","OBJECT_TYPE":"PAYLOAD","ELEMENT_SET_NO":"999","OBJECT_NAME":"STARLINK-5595","MEAN_MOTION":"15.69941788","GP_ID":"232211754","SITE":"AFWTR","FILE":"3913175","INCLINATION":"70.0009","ECCENTRICITY":"0.00035580","DECAY_DATE":null,"RCS_SIZE":"LARGE","CENTER_NAME":"EARTH"},{"ARG_OF_PERICENTER":"279.9698","MEAN_MOTION_DOT":"0.00002131","OBJECT_TYPE":"PAYLOAD","PERIAPSIS":"356.311","OBJECT_NAME":"STARLINK-5599","ELEMENT_SET_NO":"999","RCS_SIZE":"LARGE","CENTER_NAME":"EARTH","DECAY_DATE":null,"ECCENTRICITY":"0.00040670","INCLINATION":"69.9998","FILE":"3913175","SITE":"AFWTR","GP_ID":"232212004","MEAN_MOTION":"15.69946764","EPOCH":"2023-05-20T19:19:21.402912","TLE_LINE2":"2 55766  69.9998 295.7660 0004067 279.9698  80.1038 15.69946764 12924","EPHEMERIS_TYPE":"0","OBJECT_ID":"2023-028AB","PERIOD":"91.723","MEAN_MOTION_DDOT":"0.0000000000000","TLE_LINE1":"1 55766U 23028AB  23140.80510883  .00002131  00000-0  19472-4 0  9991","BSTAR":"0.00001947200000","MEAN_ELEMENT_THEORY":"SGP4","CLASSIFICATION_TYPE":"U","TIME_SYSTEM":"UTC","RA_OF_ASC_NODE":"295.7660","REF_FRAME":"TEME","SEMIMAJOR_AXIS":"6737.186","REV_AT_EPOCH":"1292","MEAN_ANOMALY":"80.1038","LAUNCH_DATE":"2023-03-03","NORAD_CAT_ID":"55766","APOAPSIS":"361.791","COUNTRY_CODE":"US"},{"MEAN_MOTION_DOT":"0.00001909","ARG_OF_PERICENTER":"281.9784","PERIAPSIS":"356.594","OBJECT_TYPE":"PAYLOAD","ELEMENT_SET_NO":"999","OBJECT_NAME":"STARLINK-5606","MEAN_MOTION":"15.69943206","GP_ID":"232212751","FILE":"3913175","SITE":"AFWTR","INCLINATION":"69.9992","ECCENTRICITY":"0.00036620","RCS_SIZE":"LARGE","CENTER_NAME":"EARTH","DECAY_DATE":null,"OBJECT_ID":"2023-028AC","PERIOD":"91.723","EPHEMERIS_TYPE":"0","TLE_LINE2":"2 55767  69.9992 295.7674 0003662 281.9784  78.1001 15.69943206 12928","EPOCH":"2023-05-20T19:20:25.427904","CLASSIFICATION_TYPE":"U","MEAN_ELEMENT_THEORY":"SGP4","BSTAR":"0.00001762800000","TLE_LINE1":"1 55767U 23028AC  23140.80584986  .00001909  00000-0  17628-4 0  9990","MEAN_MOTION_DDOT":"0.0000000000000","REV_AT_EPOCH":"1292","SEMIMAJOR_AXIS":"6737.196","MEAN_ANOMALY":"78.1001","REF_FRAME":"TEME","TIME_SYSTEM":"UTC","RA_OF_ASC_NODE":"295.7674","APOAPSIS":"361.529","NORAD_CAT_ID":"55767","COUNTRY_CODE":"US","LAUNCH_DATE":"2023-03-03"},{"OBJECT_TYPE":"PAYLOAD","PERIAPSIS":"356.517","ARG_OF_PERICENTER":"290.4824","MEAN_MOTION_DOT":"0.00001944","ECCENTRICITY":"0.00037720","INCLINATION":"70.0003","DECAY_DATE":null,"CENTER_NAME":"EARTH","RCS_SIZE":"LARGE","MEAN_MOTION":"15.69944384","GP_ID":"232213000","SITE":"AFWTR","FILE":"3913175","OBJECT_NAME":"STARLINK-5583","ELEMENT_SET_NO":"999","MEAN_MOTION_DDOT":"0.0000000000000","TLE_LINE1":"1 55768U 23028AD  23140.80542815  .00001944  00000-0  17916-4 0  9995","BSTAR":"0.00001791600000","CLASSIFICATION_TYPE":"U","MEAN_ELEMENT_THEORY":"SGP4","TLE_LINE2":"2 55768  70.0003 295.7656 0003772 290.4824  69.5967 15.69944384 12920","EPOCH":"2023-05-20T19:19:48.992160","OBJECT_ID":"2023-028AD","PERIOD":"91.723","EPHEMERIS_TYPE":"0","COUNTRY_CODE":"US","NORAD_CAT_ID":"55768","APOAPSIS":"361.599","LAUNCH_DATE":"2023-03-03","RA_OF_ASC_NODE":"295.7656","TIME_SYSTEM":"UTC","MEAN_ANOMALY":"69.5967","REV_AT_EPOCH":"1292","SEMIMAJOR_AXIS":"6737.193","REF_FRAME":"TEME"}];
